H1 CPF 01  gfz 2021 05 22 00  6421 tandemx   
H2 1003001  6202 36605    2021 05 22 00 59 42 2021 05 27 00 00 42   120 1 1  0 0 0
H9
10 0 59357  49662.000000  0     304671.775  -1359220.086   6735304.877
10 0 59357  49782.000000  0    -135758.266  -2142266.736   6534741.485
10 0 59357  49902.000000  0    -587126.865  -2880122.917   6219327.937
10 0 59357  50022.000000  0   -1040651.153  -3559784.250   5794576.657
10 0 59357  50142.000000  0   -1487286.371  -4169406.319   5267917.217
10 0 59357  50262.000000  0   -1917905.001  -4698515.428   4648574.938
10 0 59357  50382.000000  0   -2323483.941  -5138196.775   3947416.346
10 0 59357  50502.000000  0   -2695294.568  -5481254.169   3176761.435
10 0 59357  50622.000000  0   -3025090.091  -5722335.040   2350166.503
10 0 59357  50742.000000  0   -3305286.542  -5858019.571   1482183.686
10 0 59357  50862.000000  0   -3529133.545  -5886872.379    588100.081
10 0 59357  50982.000000  0   -3690870.302  -5809454.326   -316338.483
10 0 59357  51102.000000  0   -3785862.807  -5628294.305  -1215213.362
10 0 59357  51222.000000  0   -3810718.412  -5347820.592  -2092722.684
10 0 59357  51342.000000  0   -3763374.855  -4974253.647  -2933467.176
10 0 59357  51462.000000  0   -3643161.341  -4515463.760  -3722725.779
10 0 59357  51582.000000  0   -3450830.458  -3980798.384  -4446714.616
10 0 59357  51702.000000  0   -3188561.513  -3380884.653  -5092824.969
10 0 59357  51822.000000  0   -2859935.661  -2727411.486  -5649836.794
10 0 59357  51942.000000  0   -2469884.110  -2032896.936  -6108104.289
10 0 59357  52062.000000  0   -2024610.486  -1310446.008  -6459712.797
10 0 59357  52182.000000  0   -1531488.582   -573502.953  -6698603.980
10 0 59357  52302.000000  0    -998939.260    164396.175  -6820668.235
10 0 59357  52422.000000  0    -436288.705    889866.156  -6823807.005
10 0 59357  52542.000000  0     146391.648   1589909.089  -6707964.964
10 0 59357  52662.000000  0     738459.638   2252140.711  -6475131.381
10 0 59357  52782.000000  0    1328892.486   2865005.597  -6129311.811
10 0 59357  52902.000000  0    1906487.831   3417977.001  -5676466.035
10 0 59357  53022.000000  0    2460072.418   3901737.889  -5124415.066
10 0 59357  53142.000000  0    2978716.006   4308340.815  -4482717.803
10 0 59357  53262.000000  0    3451946.867   4631345.013  -3762516.765
10 0 59357  53382.000000  0    3869964.644   4865926.200  -2976353.834
10 0 59357  53502.000000  0    4223846.640   5008956.107  -2137957.637
10 0 59357  53622.000000  0    4505740.410   5059048.865  -1262006.196
10 0 59357  53742.000000  0    4709040.025   5016574.806   -363869.054
10 0 59357  53862.000000  0    4828539.882   4883637.202    540668.116
10 0 59357  53982.000000  0    4860560.192   4664013.780   1435687.561
10 0 59357  54102.000000  0    4803044.097   4363066.314   2305426.745
10 0 59357  54222.000000  0    4655623.310   3987617.457   3134565.773
10 0 59357  54342.000000  0    4419647.012   3545797.540   3908505.818
10 0 59357  54462.000000  0    4098175.254   3046866.765   4613631.062
10 0 59357  54582.000000  0    3695939.654   2501018.452   5237550.316
10 0 59357  54702.000000  0    3219268.268   1919166.257   5769315.623
10 0 59357  54822.000000  0    2675979.549   1312722.528   6199609.562
10 0 59357  54942.000000  0    2075249.318    693371.234   6520902.656
10 0 59357  55062.000000  0    1427452.007     72842.266   6727578.137
10 0 59357  55182.000000  0     743979.142   -537309.365   6816026.032
10 0 59357  55302.000000  0      37037.530  -1125919.133   6784703.008
10 0 59357  55422.000000  0    -680569.129  -1682417.021   6634156.937
10 0 59357  55542.000000  0   -1395671.947  -2197017.417   6367016.971
10 0 59357  55662.000000  0   -2094976.725  -2660890.853   5987949.030
10 0 59357  55782.000000  0   -2765309.239  -3066316.287   5503581.061
10 0 59357  55902.000000  0   -3393866.259  -3406813.769   4922395.332
10 0 59357  56022.000000  0   -3968465.260  -3677251.692   4254584.209
10 0 59357  56142.000000  0   -4477784.771  -3873926.790   3511874.703
10 0 59357  56262.000000  0   -4911592.288  -3994616.024   2707325.061
10 0 59357  56382.000000  0   -5260955.861  -4038599.628   1855095.614
10 0 59357  56502.000000  0   -5518433.189  -4006653.346    970195.297
10 0 59357  56622.000000  0   -5678232.446  -3901009.049     68210.876
10 0 59357  56742.000000  0   -5736341.396  -3725285.615   -834975.735
10 0 59357  56862.000000  0   -5690621.069  -3484391.451  -1723476.931
10 0 59357  56982.000000  0   -5540859.794  -3184399.977  -2581688.278
10 0 59357  57102.000000  0   -5288788.104  -2832403.310  -3394568.163
10 0 59357  57222.000000  0   -4938055.167  -2436348.016  -4147904.179
10 0 59357  57342.000000  0   -4494168.034  -2004857.108  -4828560.633
10 0 59357  57462.000000  0   -3964395.369  -1547043.305  -5424703.335
10 0 59357  57582.000000  0   -3357638.623  -1072317.150  -5925997.772
10 0 59357  57702.000000  0   -2684274.447   -590194.791  -6323777.619
10 0 59357  57822.000000  0   -1955972.010   -110109.750  -6611183.056
10 0 59357  57942.000000  0   -1185488.143    358767.612  -6783267.164
10 0 59357  58062.000000  0    -386446.280    807699.932  -6837070.927
10 0 59357  58182.000000  0     426899.121   1228541.505  -6771668.296
10 0 59357  58302.000000  0    1239909.418   1613881.292  -6588181.236
10 0 59357  58422.000000  0    2037819.867   1957171.230  -6289764.560
10 0 59357  58542.000000  0    2806002.577   2252836.516  -5881557.295
10 0 59357  58662.000000  0    3530231.162   2496365.989  -5370602.394
10 0 59357  58782.000000  0    4196942.094   2684381.653  -4765736.759
10 0 59357  58902.000000  0    4793491.810   2814686.925  -4077450.411
10 0 59357  59022.000000  0    5308402.152   2886291.194  -3317713.853
10 0 59357  59142.000000  0    5731588.053   2899410.351  -2499777.800
10 0 59357  59262.000000  0    6054565.541   2855443.787  -1637947.140
10 0 59357  59382.000000  0    6270631.077   2756925.516   -747330.048
10 0 59357  59502.000000  0    6375008.571   2607451.920    156429.906
10 0 59357  59622.000000  0    6364958.778   2411585.972   1057435.795
10 0 59357  59742.000000  0    6239848.259   2174741.670   1939823.427
10 0 59357  59862.000000  0    6001178.200   1903052.444   2788049.864
10 0 59357  59982.000000  0    5652568.184   1603223.967   3587176.166
10 0 59357  60102.000000  0    5199697.222   1282377.265   4323137.528
10 0 59357  60222.000000  0    4650202.704    947885.451   4982993.920
10 0 59357  60342.000000  0    4013543.663    607209.292   5555157.874
10 0 59357  60462.000000  0    3300828.069    267733.644   6029596.941
10 0 59357  60582.000000  0    2524609.480    -63389.332   6398003.655
10 0 59357  60702.000000  0    1698660.893   -379387.277   6653934.545
10 0 59357  60822.000000  0     837726.956   -674003.829   6792918.280
10 0 59357  60942.000000  0     -42742.298   -941621.288   6812529.232
10 0 59357  61062.000000  0    -926869.011  -1177366.811   6712426.115
10 0 59357  61182.000000  0   -1798633.014  -1377201.292   6494356.696
10 0 59357  61302.000000  0   -2642160.407  -1537988.248   6162128.140
10 0 59357  61422.000000  0   -3442011.228  -1657542.304   5721546.337
10 0 59357  61542.000000  0   -4183465.989  -1734658.353   5180322.221
10 0 59357  61662.000000  0   -4852802.275  -1769119.939   4547942.106
10 0 59357  61782.000000  0   -5437556.094  -1761685.527   3835505.509
10 0 59357  61902.000000  0   -5926761.578  -1714052.646   3055532.675
10 0 59357  62022.000000  0   -6311165.108  -1628801.614   2221746.343
10 0 59357  62142.000000  0   -6583411.150  -1509320.542   1348829.122
10 0 59357  62262.000000  0   -6738191.186  -1359711.839    452157.964
10 0 59357  62382.000000  0   -6772351.207  -1184682.492   -452474.640
10 0 59357  62502.000000  0   -6684956.110   -989421.424  -1349148.036
10 0 59357  62622.000000  0   -6477308.788   -779467.174  -2222102.334
10 0 59357  62742.000000  0   -6152924.837   -560569.925  -3056021.859
10 0 59357  62862.000000  0   -5717463.712   -338551.329  -3836309.251
10 0 59357  62982.000000  0   -5178617.153   -119163.841  -4549342.412
10 0 59357  63102.000000  0   -4545960.053     92045.282  -5182709.100
10 0 59357  63222.000000  0   -3830768.394    289862.053  -5725416.856
10 0 59357  63342.000000  0   -3045807.299    469523.018  -6168074.006
10 0 59357  63462.000000  0   -2205096.654    626819.791  -6503039.451
10 0 59357  63582.000000  0   -1323659.061    758188.804  -6724543.361
10 0 59357  63702.000000  0    -417252.450    860785.581  -6828776.147
10 0 59357  63822.000000  0     497905.928    932542.075  -6813945.231
10 0 59357  63942.000000  0    1405421.116    972205.785  -6680303.954
10 0 59357  64062.000000  0    2289008.344    979361.275  -6430149.610
10 0 59357  64182.000000  0    3132779.592    954433.421  -6067787.978
10 0 59357  64302.000000  0    3921525.169    898672.045  -5599465.941
10 0 59357  64422.000000  0    4640985.883    814117.750  -5033274.516
10 0 59357  64542.000000  0    5278113.896    703550.199  -4379021.091
10 0 59357  64662.000000  0    5821316.364    570419.319  -3648069.965
10 0 59357  64782.000000  0    6260675.609    418760.033  -2853153.775
10 0 59357  64902.000000  0    6588142.293    253092.850  -2008158.451
10 0 59357  65022.000000  0    6797696.781     78311.587  -1127882.444
10 0 59357  65142.000000  0    6885471.049   -100438.722   -227775.029
10 0 59357  65262.000000  0    6849829.504   -277890.509    676339.296
10 0 59357  65382.000000  0    6691406.426   -448786.847   1568546.531
10 0 59357  65502.000000  0    6413097.486   -608014.811   2433132.219
10 0 59357  65622.000000  0    6020004.727   -750735.808   3254868.072
10 0 59357  65742.000000  0    5519336.192   -872509.134   4019286.823
10 0 59357  65862.000000  0    4920266.706   -969405.966   4712941.428
10 0 59357  65982.000000  0    4233759.396  -1038111.660   5323644.130
10 0 59357  66102.000000  0    3472354.589  -1076011.635   5840679.075
99
